[{"OBJECT_NAME":"SITRO-AIS 8 (ANOKHIN)","OBJECT_ID":"2023-091AD","EPOCH":"2026-03-09T23:44:40.058592","MEAN_MOTION":15.29359179,"ECCENTRICITY":0.0012509,"INCLINATION":97.5169,"RA_OF_ASC_NODE":133.2823,"ARG_OF_PERICENTER":92.0171,"MEAN_ANOMALY":268.2501,"EPHEMERIS_TYPE":0,"CLASSIFICATION_TYPE":"U","NORAD_CAT_ID":57193,"ELEMENT_SET_NO":999,"REV_AT_EPOCH":14927,"BSTAR":0.00064982524,"MEAN_MOTION_DOT":0.00018494,"MEAN_MOTION_DDOT":0},{"OBJECT_NAME":"STARLINK-31039","OBJECT_ID":"2024-011V","EPOCH":"2026-03-09T23:33:07.163424","MEAN_MOTION":15.30180102,"ECCENTRICITY":0.0001024,"INCLINATION":53.1634,"RA_OF_ASC_NODE":12.4032,"ARG_OF_PERICENTER":78.2875,"MEAN_ANOMALY":281.824,"EPHEMERIS_TYPE":0,"CLASSIFICATION_TYPE":"U","NORAD_CAT_ID":58784,"ELEMENT_SET_NO":999,"REV_AT_EPOCH":12031,"BSTAR":9.7795374e-5,"MEAN_MOTION_DOT":2.537e-5,"MEAN_MOTION_DDOT":0}]
